{
  "norad_id": 49442,
  "name": "STARLINK-3098",
  "history": [
    {
      "epoch": "2026-03-28T19:51:53.642880",
      "apogee_km": 540.6899304491608,
      "perigee_km": 538.720420781764,
      "latitude_deg": -52.59496792595908,
      "longitude_deg": -76.34039680007845,
      "semi_major_axis_km": 6917.842175615462,
      "eccentricity": 0.00014235,
      "inclination_deg": 53.2165,
      "raan_deg": 123.2058,
      "arg_perigee_deg": 92.3477,
      "mean_anomaly_deg": 267.7679,
      "mean_motion_rev_day": 15.08852502
    },
    {
      "epoch": "2026-03-29T02:13:26.409792",
      "apogee_km": 541.0197599704152,
      "perigee_km": 538.3882132591061,
      "latitude_deg": 31.17783044976066,
      "longitude_deg": -50.90398912015371,
      "semi_major_axis_km": 6917.84098661476,
      "eccentricity": 0.0001902,
      "inclination_deg": 53.2149,
      "raan_deg": 122.0183,
      "arg_perigee_deg": 87.8958,
      "mean_anomaly_deg": 272.2252,
      "mean_motion_rev_day": 15.08852891
    }
  ]
}